1 53891U 22119F   22282.58334491  .00014615  00000-0  10836-3 0  9992
2 53891  53.2177 180.6598 0000933  95.9844 129.7973 15.73201456  1300